KAITUO 1B               
1 40912U 15049P   17273.77010387  .00002856  00000-0  14358-3 0  9993
2 40912  97.4532 279.9078 0015057 187.9026 259.6643 15.17970102112306
TIANWANG 1C (TW-1C)     
1 40926U 15051B   17273.88151883  .00018771  00000-0  40520-3 0  9993
2 40926  97.2207 312.6696 0012942 139.4918 342.4122 15.44496775113225
TIANWANG 1B (TW-1B)     
1 40927U 15051C   17273.70732399  .00020861  00000-0  46777-3 0  9995
2 40927  97.2289 312.4678 0011823 149.0892 351.1602 15.43361292113133
TIANWANG 1A (TW-1A)     
1 40928U 15051D   17273.79464661  .00008647  00000-0  24097-3 0  9998
2 40928  97.2182 307.7057 0012969 170.0342 309.1626 15.36932792112915
LAPAN-A2 (IO-86)        
1 40931U 15052B   17273.81966996  .00001012  00000-0  52021-4 0  9992
2 40931   5.9978 199.4835 0014164 296.8041  63.0638 14.76546061108603
LQSAT                   
1 40958U 15057A   17273.88034379 -.00000361  00000-0 -48299-4 0  9994
2 40958  97.9691 347.3096 0019733  88.8517 271.4904 14.72987279106674
CHUBUSAT-2              
1 41338U 16012B   17273.10939429  .00000801  00000-0  56361-4 0  9990
2 41338  31.0027 165.8613 0013809  17.5879 342.5233 14.99817609 88756
CHUBUSAT-3              
1 41339U 16012C   17273.75539803  .00001443  00000-0  10646-3 0  9992
2 41339  31.0100 160.7304 0013479  30.8410 329.3022 15.00020638 88831
OUFTI-1                 
1 41458U 16025C   17273.60657350  .00005648  00000-0  30183-3 0  9999
2 41458  98.1737 317.1981 0172118 297.4420  60.9391 15.03656798 78426
E-ST@R-II               
1 41459U 16025D   17273.63951350  .00004276  00000-0  23160-3 0  9993
2 41459  98.1753 317.1609 0171540 297.5869  60.8023 15.03469430 78413
AAUSAT 4                
1 41460U 16025E   17273.83607794  .00004847  00000-0  26086-3 0  9991
2 41460  98.1692 317.5412 0163995 294.6726  63.7452 15.04528169 78478
NUSAT 1 (LO-87)         
1 41557U 16033B   17273.83022781  .00003794  00000-0  14366-3 0  9992
2 41557  97.4571 353.3338 0013931   1.4459 358.6817 15.27456390 74556
BEESAT-4                
1 41619U 16040W   17273.12898160  .00004647  00000-0  21112-3 0  9998
2 41619  97.4521 334.4649 0013394  65.6082 294.6550 15.21179418 58543
PRATHAM                 
1 41783U 16059A   17273.77118745  .00000149  00000-0  38462-4 0  9995
2 41783  98.1562 333.9922 0033531 187.6015 172.4683 14.62863421 54030
ALSAT 1N                
1 41789U 16059G   17273.67223976 -.00000048  00000-0  20983-6 0  9993
2 41789  98.1565 334.5978 0028730 180.4198 179.6976 14.64080625 54049
NAYIF-1 (EO-88)         
1 42017U 17008BX  17273.61216207  .00003890  00000-0  16629-3 0  9992
2 42017  97.4849 334.8269 0006019 197.7257 162.3771 15.23432564 34533
LILACSAT-1              
1 42725U 98067ME  17273.46163315  .00025953  00000-0  34227-3 0  9994
2 42725  51.6382 231.7010 0005914 357.2866   2.8094 15.58208490 19877
MAX VALIER SAT          
1 42778U 17036P   17273.77910340  .00002674  00000-0  12490-3 0  9994
2 42778  97.4406 332.3282 0011548 258.0343 101.9507 15.20624482 15077
